KUZGTU 1 (RS47S)        
1 57217U 23091AV  26203.27984054  .00011906  00000+0  40469-3 0  9991
2 57217  97.5042 268.1318 0009373 339.6600  20.4266 15.30577515169745
SONATE-2                
1 59112U 24043Q   26201.94279129  .00033286  00000+0  39440-3 0  9999
2 59112  97.5562 354.4821 0006563  88.1508 272.0500 15.61151934133156
MESAT1                  
1 60209U 24125G   26203.14122814  .00078453  00000+0  72814-3 0  9998
2 60209  97.2240  61.5144 0010513  91.0035 269.2431 15.67141012115037
OOV-CUBE (TUBSAT-30)    
1 60240U 24128F   26203.25313467  .00001541  00000+0  12811-3 0  9999
2 60240  61.9942 103.2884 0040191 141.6330 218.7632 15.02894414111385
COLIBRI-S (RS67S)       
1 61746U 24199M   26203.28186639  .00023770  00000+0  43840-3 0  9995
2 61746  97.2942  77.4816 0009666 139.4138 220.7835 15.49073388142842
HORS 3 (RS81S)          
1 61753U 24199U   26203.26284978  .00043328  00000+0  59216-3 0  9991
2 61753  97.2923  79.8545 0007877 135.1878 225.0015 15.57299824143012
HORS 4 (RS82S)          
1 61754U 24199V   26203.23537910  .00058991  00000+0  64864-3 0  9993
2 61754  97.2861  81.2778 0007529 129.5559 230.6366 15.62961543143118
SIT-2086                
1 61764U 24199AF  26203.28371061  .00041407  00000+0  60666-3 0  9992
2 61764  97.2883  80.2302 0008637 124.0859 236.1217 15.55415770139882
HYPERVIEW 1G (RS66S)    
1 61772U 24199AP  26203.24192944  .00198491  15992-4  73193-3 0  9994
2 61772  97.2774  85.0223 0009400 145.1647 215.0242 15.88143809140213
ALTAIR (RS65S)          
1 61779U 24199AW  26203.26066730  .00009569  00000+0  26075-3 0  9999
2 61779  97.2987  72.3868 0012839 170.9451 189.2028 15.37605027142506
ASRTU-1 (AO-123)        
1 61781U 24199AY  26203.28091053  .00007876  00000+0  22540-3 0  9992
2 61781  97.2958  71.6382 0013783 174.7387 185.4005 15.36124892139312
SAMSAT-IONOSPHERE (RS7*)
1 61784U 24199BB  26203.29356326  .00052956  00000+0  63635-3 0  9992
2 61784  97.2886  80.0764 0009896 138.8622 221.3383 15.60653883143033
RTU MIREA 1 (RS51S)     
1 61785U 24199BC  26203.29478987  .00069958  00000+0  70885-3 0  9996
2 61785  97.2871  81.1122 0009855 134.7422 225.4642 15.64979935139958
TEVEL2-4                
1 63213U 25052D   26203.18371493  .00021346  00000+0  61522-3 0  9992
2 63213  97.3852  99.6543 0002876  37.6826 322.4619 15.35744990 75480
TEVEL2-5                
1 63214U 25052E   26202.94768145  .00020059  00000+0  58210-3 0  9990
2 63214  97.3850  99.3550 0002922  40.5078 319.6383 15.35543714 75441
TEVEL2-6                
1 63215U 25052F   26202.24396586  .00014542  00000+0  42379-3 0  9999
2 63215  97.3856  98.6345 0003085  43.9320 316.2168 15.35478834 75332
TEVEL2-1                
1 63217U 25052H   26201.95933923  .00012768  00000+0  37939-3 0  9994
2 63217  97.3828  97.9321 0003745  47.7905 312.3656 15.34894951 75276
TEVEL2-3                
1 63218U 25052J   26203.19126495  .00020629  00000+0  60877-3 0  9993
2 63218  97.3841  99.1918 0003537  48.5551 311.5996 15.35007108 75463
TEVEL2-2                
1 63219U 25052K   26202.22019497  .00013942  00000+0  41374-3 0  9991
2 63219  97.3827  98.1963 0003809  47.4460 312.7104 15.34915096 75317
OTP-2                   
1 63235U 25052AB  26202.95595021  .00007734  00000+0  31809-3 0  9995
2 63235  97.3822  94.8695 0007773  52.2074 307.9866 15.24401614 75163
TEVEL2-9                
1 63237U 25052AD  26202.24254238  .00012991  00000+0  41133-3 0  9993
2 63237  97.3890  97.5180 0007083  39.6084 320.5675 15.32853308 75241
TEVEL2-7                
1 63238U 25052AE  26202.94320536  .00016998  00000+0  54215-3 0  9992
2 63238  97.3894  98.1186 0007135  37.8377 322.3365 15.32558839 75340
TEVEL2-8                
1 63239U 25052AF  26202.49473660  .00014980  00000+0  47863-3 0  9990
2 63239  97.3893  97.6468 0007229  39.9501 320.2272 15.32528866 75276
INNOSAT 16 (RS92S7)     
1 64878U 25155C   26203.28871044  .00005549  00000+0  21960-3 0  9991
2 64878  97.4587 170.3181 0012251  67.2094 293.0437 15.25792442 86020
GEOSCAN 6 (RS92S6)      
1 64879U 25155D   26203.22609241  .00010748  00000+0  36361-3 0  9992
2 64879  97.4578 171.9339 0009597  62.3249 297.8965 15.30752045 86120
GEOSCAN 1 (RS92S1)      
1 64880U 25155E   26203.27949982  .00011872  00000+0  39328-3 0  9993
2 64880  97.4573 172.1676 0009535  62.4876 297.7333 15.31407841 86145
239ALFEROV (RS61S)      
1 64881U 25155F   26203.26176055  .00016003  00000+0  49072-3 0  9994
2 64881  97.4572 172.8347 0009237  62.6734 297.5448 15.33812164 86180
GEOSCAN 2 (RS92S2)      
1 64890U 25155Q   26203.26718272  .00012048  00000+0  39600-3 0  9998
2 64890  97.4572 172.3213 0008550  52.7597 307.4423 15.31665020 86157
GEOSCAN 5 (RS92S5)      
1 64891U 25155R   26203.24368104  .00015430  00000+0  46891-3 0  9990
2 64891  97.4565 172.9669 0008310  68.0859 292.1266 15.34114834 86190
GEOSCAN 4 (RS92S4)      
1 64892U 25155S   26203.28938506  .00015880  00000+0  47987-3 0  9990
2 64892  97.4570 173.0722 0008194  68.1527 292.0586 15.34287556 86200
