OBJECT_NAME,OBJECT_ID,EPOCH,MEAN_MOTION,ECCENTRICITY,INCLINATION,RA_OF_ASC_NODE,ARG_OF_PERICENTER,MEAN_ANOMALY,EPHEMERIS_TYPE,CLASSIFICATION_TYPE,NORAD_CAT_ID,ELEMENT_SET_NO,REV_AT_EPOCH,BSTAR,MEAN_MOTION_DOT,MEAN_MOTION_DDOT
KUZGTU 1 (RS47S),2023-091AV,2026-07-22T06:42:58.222656,15.30577515,.00093734,97.5042,268.1318,339.6600,20.4266,0,U,57217,999,16974,.40469396E-3,.11906E-3,0
SONATE-2,2024-043Q,2026-07-20T22:37:37.167456,15.61151934,.00065635,97.5562,354.4821,88.1508,272.0500,0,U,59112,999,13315,.394398E-3,.33286E-3,0
MESAT1,2024-125G,2026-07-22T03:23:22.111296,15.67141012,.00105136,97.2240,61.5144,91.0035,269.2431,0,U,60209,999,11503,.7281402E-3,.78453E-3,0
OOV-CUBE (TUBSAT-30),2024-128F,2026-07-22T06:04:30.835488,15.02894414,.0040191,61.9942,103.2884,141.6330,218.7632,0,U,60240,999,11138,.12811368E-3,.1541E-4,0
COLIBRI-S (RS67S),2024-199M,2026-07-22T06:45:53.256096,15.49073388,.00096668,97.2942,77.4816,139.4138,220.7835,0,U,61746,999,14284,.43840235E-3,.2377E-3,0
HORS 3 (RS81S),2024-199U,2026-07-22T06:18:30.220992,15.57299824,.00078774,97.2923,79.8545,135.1878,225.0015,0,U,61753,999,14301,.59215714E-3,.43328E-3,0
HORS 4 (RS82S),2024-199V,2026-07-22T05:38:56.754240,15.62961543,.0007529,97.2861,81.2778,129.5559,230.6366,0,U,61754,999,14311,.64863593E-3,.58991E-3,0
SIT-2086,2024-199AF,2026-07-22T06:48:32.596704,15.55415770,.00086377,97.2883,80.2302,124.0859,236.1217,0,U,61764,999,13988,.60665725E-3,.41407E-3,0
HYPERVIEW 1G (RS66S),2024-199AP,2026-07-22T05:48:22.703616,15.88143809,.00094008,97.2774,85.0223,145.1647,215.0242,0,U,61772,999,14021,.7319257E-3,.198491E-2,.15992337E-4
ALTAIR (RS65S),2024-199AW,2026-07-22T06:15:21.654720,15.37605027,.00128391,97.2987,72.3868,170.9451,189.2028,0,U,61779,999,14250,.26074832E-3,.9569E-4,0
ASRTU-1 (AO-123),2024-199AY,2026-07-22T06:44:30.669792,15.36124892,.00137832,97.2958,71.6382,174.7387,185.4005,0,U,61781,999,13931,.22539926E-3,.7876E-4,0
SAMSAT-IONOSPHERE (RS75S),2024-199BB,2026-07-22T07:02:43.865664,15.60653883,.00098967,97.2886,80.0764,138.8622,221.3383,0,U,61784,999,14303,.63635033E-3,.52956E-3,0
RTU MIREA 1 (RS51S),2024-199BC,2026-07-22T07:04:29.844768,15.64979935,.00098557,97.2871,81.1122,134.7422,225.4642,0,U,61785,999,13995,.70885022E-3,.69958E-3,0
TEVEL2-4,2025-052D,2026-07-22T04:24:32.969952,15.35744990,.00028764,97.3852,99.6543,37.6826,322.4619,0,U,63213,999,7548,.6152178E-3,.21346E-3,0
TEVEL2-5,2025-052E,2026-07-21T22:44:39.677280,15.35543714,.0002922,97.3850,99.3550,40.5078,319.6383,0,U,63214,999,7544,.58209566E-3,.20059E-3,0
TEVEL2-6,2025-052F,2026-07-21T05:51:18.650304,15.35478834,.0003085,97.3856,98.6345,43.9320,316.2168,0,U,63215,999,7533,.4237897E-3,.14542E-3,0
TEVEL2-1,2025-052H,2026-07-20T23:01:26.909472,15.34894951,.00037459,97.3828,97.9321,47.7905,312.3656,0,U,63217,999,7527,.37939109E-3,.12768E-3,0
TEVEL2-3,2025-052J,2026-07-22T04:35:25.291680,15.35007108,.00035371,97.3841,99.1918,48.5551,311.5996,0,U,63218,999,7546,.60877449E-3,.20629E-3,0
TEVEL2-2,2025-052K,2026-07-21T05:17:04.845408,15.34915096,.00038099,97.3827,98.1963,47.4460,312.7104,0,U,63219,999,7531,.41373721E-3,.13942E-3,0
OTP-2,2025-052AB,2026-07-21T22:56:34.098144,15.24401614,.00077733,97.3822,94.8695,52.2074,307.9866,0,U,63235,999,7516,.31808589E-3,.7734E-4,0
TEVEL2-9,2025-052AD,2026-07-21T05:49:15.661632,15.32853308,.00070834,97.3890,97.5180,39.6084,320.5675,0,U,63237,999,7524,.41132929E-3,.12991E-3,0
TEVEL2-7,2025-052AE,2026-07-21T22:38:12.943104,15.32558839,.0007135,97.3894,98.1186,37.8377,322.3365,0,U,63238,999,7534,.54215259E-3,.16998E-3,0
TEVEL2-8,2025-052AF,2026-07-21T11:52:25.242240,15.32528866,.00072293,97.3893,97.6468,39.9501,320.2272,0,U,63239,999,7527,.47862667E-3,.1498E-3,0
INNOSAT 16 (RS92S7),2025-155C,2026-07-22T06:55:44.582016,15.25792442,.00122511,97.4587,170.3181,67.2094,293.0437,0,U,64878,999,8602,.21959509E-3,.5549E-4,0
GEOSCAN 6 (RS92S6),2025-155D,2026-07-22T05:25:34.384224,15.30752045,.00095973,97.4578,171.9339,62.3249,297.8965,0,U,64879,999,8612,.3636098E-3,.10748E-3,0
GEOSCAN 1 (RS92S1),2025-155E,2026-07-22T06:42:28.784448,15.31407841,.00095358,97.4573,172.1676,62.4876,297.7333,0,U,64880,999,8614,.39327865E-3,.11872E-3,0
239ALFEROV (RS61S),2025-155F,2026-07-22T06:16:56.111520,15.33812164,.00092373,97.4572,172.8347,62.6734,297.5448,0,U,64881,999,8618,.49071763E-3,.16003E-3,0
GEOSCAN 2 (RS92S2),2025-155Q,2026-07-22T06:24:44.587008,15.31665020,.00085506,97.4572,172.3213,52.7597,307.4423,0,U,64890,999,8615,.39600356E-3,.12048E-3,0
GEOSCAN 5 (RS92S5),2025-155R,2026-07-22T05:50:54.041856,15.34114834,.00083107,97.4565,172.9669,68.0859,292.1266,0,U,64891,999,8619,.46890545E-3,.1543E-3,0
GEOSCAN 4 (RS92S4),2025-155S,2026-07-22T06:56:42.869184,15.34287556,.0008194,97.4570,173.0722,68.1527,292.0586,0,U,64892,999,8620,.47986925E-3,.1588E-3,0
